{
"type": "FeatureCollection",
"name": "point",
"crs": { "type": "name", "properties": { "name": "urn:ogc:def:crs:OGC:1.3:CRS84" } },
"features": [
{ "type": "Feature", "properties": { "OBJECTID": 1, "ID": 1.0, "Ponto": "TCL01", "LONGITUDE": 434493.0, "LATITUDE": 8865614.0, "Elev": 430.0, "Mesoregiao": "NORDESTE BAIANO", "Municipio": "Monte Santo" }, "geometry": { "type": "Point", "coordinates": [ -39.598190330999955, -10.261500004999959 ] } },
{ "type": "Feature", "properties": { "OBJECTID": 2, "ID": 2.0, "Ponto": "TCL02", "LONGITUDE": 447716.0, "LATITUDE": 8858798.0, "Elev": 509.0, "Mesoregiao": "NORDESTE BAIANO", "Municipio": "Monte Santo" }, "geometry": { "type": "Point", "coordinates": [ -39.477537806999976, -10.32334455299997 ] } },
{ "type": "Feature", "properties": { "OBJECTID": 3, "ID": 3.0, "Ponto": "TCL03", "LONGITUDE": 392180.0, "LATITUDE": 8796890.0, "Elev": 333.0, "Mesoregiao": "CENTRO NORTE BAIANO", "Municipio": "Itiúba" }, "geometry": { "type": "Point", "coordinates": [ -39.986530559999949, -10.88202333199996 ] } },
{ "type": "Feature", "properties": { "OBJECTID": 4, "ID": 4.0, "Ponto": "TCL04", "LONGITUDE": 448955.0, "LATITUDE": 8825591.0, "Elev": 438.0, "Mesoregiao": "NORDESTE BAIANO", "Municipio": "Cansanção" }, "geometry": { "type": "Point", "coordinates": [ -39.466670678999947, -10.623685531999968 ] } },
{ "type": "Feature", "properties": { "OBJECTID": 5, "ID": 5.0, "Ponto": "TCL05", "LONGITUDE": 485189.0, "LATITUDE": 8809737.0, "Elev": 306.0, "Mesoregiao": "NORDESTE BAIANO", "Municipio": "Quijingue" }, "geometry": { "type": "Point", "coordinates": [ -39.135472209999932, -10.767389065999964 ] } },
{ "type": "Feature", "properties": { "OBJECTID": 6, "ID": 6.0, "Ponto": "TCL06", "LONGITUDE": 516639.0, "LATITUDE": 8820913.0, "Elev": 431.0, "Mesoregiao": "NORDESTE BAIANO", "Municipio": "Quijingue" }, "geometry": { "type": "Point", "coordinates": [ -38.847858083999938, -10.666304000999958 ] } },
{ "type": "Feature", "properties": { "OBJECTID": 7, "ID": 7.0, "Ponto": "TCL07", "LONGITUDE": 386720.0, "LATITUDE": 8759858.0, "Elev": 389.0, "Mesoregiao": "CENTRO NORTE BAIANO", "Municipio": "Jacobina" }, "geometry": { "type": "Point", "coordinates": [ -40.037658951999958, -11.216720101999954 ] } },
{ "type": "Feature", "properties": { "OBJECTID": 8, "ID": 8.0, "Ponto": "TCL08", "LONGITUDE": 444771.0, "LATITUDE": 8775014.0, "Elev": 318.0, "Mesoregiao": "NORDESTE BAIANO", "Municipio": "Queimadas" }, "geometry": { "type": "Point", "coordinates": [ -39.505689601999961, -11.081031570999926 ] } },
{ "type": "Feature", "properties": { "OBJECTID": 9, "ID": 9.0, "Ponto": "TCL09", "LONGITUDE": 486279.0, "LATITUDE": 8772200.0, "Elev": 275.0, "Mesoregiao": "NORDESTE BAIANO", "Municipio": "Araci" }, "geometry": { "type": "Point", "coordinates": [ -39.125645143999975, -11.106878690999963 ] } },
{ "type": "Feature", "properties": { "OBJECTID": 10, "ID": 10.0, "Ponto": "TCL10", "LONGITUDE": 517117.0, "LATITUDE": 8766020.0, "Elev": 217.0, "Mesoregiao": "NORDESTE BAIANO", "Municipio": "Tucano" }, "geometry": { "type": "Point", "coordinates": [ -38.843227370999955, -11.162755360999938 ] } },
{ "type": "Feature", "properties": { "OBJECTID": 11, "ID": 20.0, "Ponto": "TCL11", "LONGITUDE": 594688.0, "LATITUDE": 8756607.0, "Elev": 232.0, "Mesoregiao": "NORDESTE BAIANO", "Municipio": "Itapicuru" }, "geometry": { "type": "Point", "coordinates": [ -38.13254335299996, -11.24666205699998 ] } },
{ "type": "Feature", "properties": { "OBJECTID": 12, "ID": 22.0, "Ponto": "TCL111", "LONGITUDE": 433194.0, "LATITUDE": 8651013.0, "Elev": 248.0, "Mesoregiao": "CENTRO NORTE BAIANO", "Municipio": "Ipirá" }, "geometry": { "type": "Point", "coordinates": [ -39.614143166999952, -12.202187735999928 ] } },
{ "type": "Feature", "properties": { "OBJECTID": 13, "ID": 23.0, "Ponto": "TCL112", "LONGITUDE": 475478.0, "LATITUDE": 8655164.0, "Elev": 198.0, "Mesoregiao": "CENTRO NORTE BAIANO", "Municipio": "Anguera" }, "geometry": { "type": "Point", "coordinates": [ -39.225401374999933, -12.165241590999926 ] } },
{ "type": "Feature", "properties": { "OBJECTID": 14, "ID": 24.0, "Ponto": "TCL113", "LONGITUDE": 506118.0, "LATITUDE": 8639332.0, "Elev": 214.0, "Mesoregiao": "CENTRO NORTE BAIANO", "Municipio": "Feira de Santana" }, "geometry": { "type": "Point", "coordinates": [ -38.943734120999977, -12.308500179999953 ] } },
{ "type": "Feature", "properties": { "OBJECTID": 15, "ID": 25.0, "Ponto": "TCL114", "LONGITUDE": 521911.0, "LATITUDE": 8626778.0, "Elev": 191.0, "Mesoregiao": "METROPOLITANA DE SALVADOR", "Municipio": "Santo Amaro" }, "geometry": { "type": "Point", "coordinates": [ -38.798402837999959, -12.421958664999977 ] } },
{ "type": "Feature", "properties": { "OBJECTID": 16, "ID": 26.0, "Ponto": "TCL115", "LONGITUDE": 530131.0, "LATITUDE": 8613095.0, "Elev": 15.0, "Mesoregiao": "METROPOLITANA DE SALVADOR", "Municipio": "Santo Amaro" }, "geometry": { "type": "Point", "coordinates": [ -38.722641650999947, -12.545626703999972 ] } },
{ "type": "Feature", "properties": { "OBJECTID": 17, "ID": 27.0, "Ponto": "TCL117", "LONGITUDE": 571573.0, "LATITUDE": 8570055.0, "Elev": 22.0, "Mesoregiao": "METROPOLITANA DE SALVADOR", "Municipio": "Salvador" }, "geometry": { "type": "Point", "coordinates": [ -38.340171080999937, -12.934141986999975 ] } },
{ "type": "Feature", "properties": { "OBJECTID": 18, "ID": 28.0, "Ponto": "TCL12", "LONGITUDE": 367975.0, "LATITUDE": 8720758.0, "Elev": 445.0, "Mesoregiao": "CENTRO NORTE BAIANO", "Municipio": "Várzea da Roça" }, "geometry": { "type": "Point", "coordinates": [ -40.210835870999972, -11.569605534999937 ] } },
{ "type": "Feature", "properties": { "OBJECTID": 19, "ID": 29.0, "Ponto": "TCL13", "LONGITUDE": 418196.0, "LATITUDE": 8733887.0, "Elev": 329.0, "Mesoregiao": "NORDESTE BAIANO", "Municipio": "Gavião" }, "geometry": { "type": "Point", "coordinates": [ -39.749967370999968, -11.452440038999953 ] } },
{ "type": "Feature", "properties": { "OBJECTID": 20, "ID": 30.0, "Ponto": "TCL14", "LONGITUDE": 450361.0, "LATITUDE": 8728642.0, "Elev": 297.0, "Mesoregiao": "NORDESTE BAIANO", "Municipio": "Retirolândia" }, "geometry": { "type": "Point", "coordinates": [ -39.455167844999949, -11.500480223999944 ] } },
{ "type": "Feature", "properties": { "OBJECTID": 21, "ID": 31.0, "Ponto": "TCL15", "LONGITUDE": 499218.0, "LATITUDE": 8729163.0, "Elev": 190.0, "Mesoregiao": "NORDESTE BAIANO", "Municipio": "Teofilândia" }, "geometry": { "type": "Point", "coordinates": [ -39.007170555999949, -11.496123889999978 ] } },
{ "type": "Feature", "properties": { "OBJECTID": 22, "ID": 32.0, "Ponto": "TCL16", "LONGITUDE": 527092.0, "LATITUDE": 8731306.0, "Elev": 423.0, "Mesoregiao": "NORDESTE BAIANO", "Municipio": "Sátiro Dias" }, "geometry": { "type": "Point", "coordinates": [ -38.751597424999943, -11.476637628999981 ] } },
{ "type": "Feature", "properties": { "OBJECTID": 23, "ID": 33.0, "Ponto": "TCL17", "LONGITUDE": 567266.0, "LATITUDE": 8743712.0, "Elev": 200.0, "Mesoregiao": "NORDESTE BAIANO", "Municipio": "Olindina" }, "geometry": { "type": "Point", "coordinates": [ -38.383500677999962, -11.363901619999979 ] } },
{ "type": "Feature", "properties": { "OBJECTID": 24, "ID": 34.0, "Ponto": "TCL18", "LONGITUDE": 581271.0, "LATITUDE": 8730785.0, "Elev": 200.0, "Mesoregiao": "NORDESTE BAIANO", "Municipio": "Crisópolis" }, "geometry": { "type": "Point", "coordinates": [ -38.254845282999952, -11.480503768999938 ] } },
{ "type": "Feature", "properties": { "OBJECTID": 25, "ID": 35.0, "Ponto": "TCL19", "LONGITUDE": 644851.0, "LATITUDE": 8719878.0, "Elev": 90.0, "Mesoregiao": "NORDESTE BAIANO", "Municipio": "Jandaíra" }, "geometry": { "type": "Point", "coordinates": [ -37.671517061999964, -11.577046346999964 ] } },
{ "type": "Feature", "properties": { "OBJECTID": 26, "ID": 36.0, "Ponto": "TCL20", "LONGITUDE": 308117.0, "LATITUDE": 8679751.0, "Elev": 729.0, "Mesoregiao": "CENTRO NORTE BAIANO", "Municipio": "Tapiramutá" }, "geometry": { "type": "Point", "coordinates": [ -40.762012282999933, -11.937464232999957 ] } },
{ "type": "Feature", "properties": { "OBJECTID": 27, "ID": 37.0, "Ponto": "TCL21", "LONGITUDE": 358388.0, "LATITUDE": 8676798.0, "Elev": 394.0, "Mesoregiao": "CENTRO NORTE BAIANO", "Municipio": "Baixa Grande" }, "geometry": { "type": "Point", "coordinates": [ -40.300612018999971, -11.966675633999955 ] } },
{ "type": "Feature", "properties": { "OBJECTID": 28, "ID": 38.0, "Ponto": "TCL217", "LONGITUDE": 572672.0, "LATITUDE": 8746612.0, "Elev": 128.0, "Mesoregiao": "NORDESTE BAIANO", "Municipio": "Olindina" }, "geometry": { "type": "Point", "coordinates": [ -38.334017219999964, -11.337568579999981 ] } },
{ "type": "Feature", "properties": { "OBJECTID": 29, "ID": 39.0, "Ponto": "TCL22", "LONGITUDE": 411476.0, "LATITUDE": 8680540.0, "Elev": 293.0, "Mesoregiao": "CENTRO NORTE BAIANO", "Municipio": "Ipirá" }, "geometry": { "type": "Point", "coordinates": [ -39.812977697999941, -11.934674775999952 ] } },
{ "type": "Feature", "properties": { "OBJECTID": 30, "ID": 40.0, "Ponto": "TCL23", "LONGITUDE": 445069.0, "LATITUDE": 8698593.0, "Elev": 258.0, "Mesoregiao": "NORDESTE BAIANO", "Municipio": "Riachao do Jacuipe" }, "geometry": { "type": "Point", "coordinates": [ -39.504180954999981, -11.77214147799998 ] } },
{ "type": "Feature", "properties": { "OBJECTID": 31, "ID": 41.0, "Ponto": "TCL24", "LONGITUDE": 468179.0, "LATITUDE": 8696920.0, "Elev": 236.0, "Mesoregiao": "NORDESTE BAIANO", "Municipio": "Riachao do Jacuipe" }, "geometry": { "type": "Point", "coordinates": [ -39.292085783999937, -11.787567387999957 ] } },
{ "type": "Feature", "properties": { "OBJECTID": 32, "ID": 42.0, "Ponto": "TCL25", "LONGITUDE": 511479.0, "LATITUDE": 8677023.0, "Elev": 214.0, "Mesoregiao": "CENTRO NORTE BAIANO", "Municipio": "Santanópolis" }, "geometry": { "type": "Point", "coordinates": [ -38.894564370999944, -11.967635255999937 ] } },
{ "type": "Feature", "properties": { "OBJECTID": 33, "ID": 43.0, "Ponto": "TCL26", "LONGITUDE": 545321.0, "LATITUDE": 8672897.0, "Elev": 263.0, "Mesoregiao": "NORDESTE BAIANO", "Municipio": "Aramari" }, "geometry": { "type": "Point", "coordinates": [ -38.583669019999945, -12.004658393999932 ] } },
{ "type": "Feature", "properties": { "OBJECTID": 34, "ID": 44.0, "Ponto": "TCL27", "LONGITUDE": 591843.0, "LATITUDE": 8707662.0, "Elev": 237.0, "Mesoregiao": "NORDESTE BAIANO", "Municipio": "Aporá" }, "geometry": { "type": "Point", "coordinates": [ -38.157293785999968, -11.689333774999966 ] } },
{ "type": "Feature", "properties": { "OBJECTID": 35, "ID": 45.0, "Ponto": "TCL28", "LONGITUDE": 643565.0, "LATITUDE": 8689545.0, "Elev": 99.0, "Mesoregiao": "NORDESTE BAIANO", "Municipio": "Conde" }, "geometry": { "type": "Point", "coordinates": [ -37.68201000199997, -11.851345841999944 ] } },
{ "type": "Feature", "properties": { "OBJECTID": 36, "ID": 46.0, "Ponto": "TCL29", "LONGITUDE": 305023.0, "LATITUDE": 8659192.0, "Elev": 627.0, "Mesoregiao": "CENTRO NORTE BAIANO", "Municipio": "Ruy Barbosa" }, "geometry": { "type": "Point", "coordinates": [ -40.791644479999945, -12.123116040999946 ] } },
{ "type": "Feature", "properties": { "OBJECTID": 37, "ID": 47.0, "Ponto": "TCL30", "LONGITUDE": 360567.0, "LATITUDE": 8666948.0, "Elev": 349.0, "Mesoregiao": "CENTRO NORTE BAIANO", "Municipio": "Macajuba" }, "geometry": { "type": "Point", "coordinates": [ -40.281023795999943, -12.055822555999953 ] } },
{ "type": "Feature", "properties": { "OBJECTID": 38, "ID": 48.0, "Ponto": "TCL31", "LONGITUDE": 401928.0, "LATITUDE": 8640254.0, "Elev": 248.0, "Mesoregiao": "CENTRO NORTE BAIANO", "Municipio": "Ipirá" }, "geometry": { "type": "Point", "coordinates": [ -39.901878820999968, -12.29868124199993 ] } },
{ "type": "Feature", "properties": { "OBJECTID": 39, "ID": 49.0, "Ponto": "TCL32", "LONGITUDE": 433102.0, "LATITUDE": 8669052.0, "Elev": 279.0, "Mesoregiao": "CENTRO NORTE BAIANO", "Municipio": "Ipirá" }, "geometry": { "type": "Point", "coordinates": [ -39.614615369999967, -12.039063054999929 ] } },
{ "type": "Feature", "properties": { "OBJECTID": 40, "ID": 50.0, "Ponto": "TCL33", "LONGITUDE": 467525.0, "LATITUDE": 8637081.0, "Elev": 165.0, "Mesoregiao": "CENTRO NORTE BAIANO", "Municipio": "Ipecaetá" }, "geometry": { "type": "Point", "coordinates": [ -39.298686973999963, -12.328698719999977 ] } },
{ "type": "Feature", "properties": { "OBJECTID": 41, "ID": 51.0, "Ponto": "TCL34", "LONGITUDE": 496854.0, "LATITUDE": 8659759.0, "Elev": 230.0, "Mesoregiao": "CENTRO NORTE BAIANO", "Municipio": "Feira de Santana" }, "geometry": { "type": "Point", "coordinates": [ -39.028913002999957, -12.123778072999926 ] } },
{ "type": "Feature", "properties": { "OBJECTID": 42, "ID": 52.0, "Ponto": "TCL35", "LONGITUDE": 547597.0, "LATITUDE": 8654778.0, "Elev": 207.0, "Mesoregiao": "NORDESTE BAIANO", "Municipio": "Aramari" }, "geometry": { "type": "Point", "coordinates": [ -38.562495357999978, -12.168477811999935 ] } },
{ "type": "Feature", "properties": { "OBJECTID": 43, "ID": 53.0, "Ponto": "TCL36", "LONGITUDE": 597115.0, "LATITUDE": 8637451.0, "Elev": 93.0, "Mesoregiao": "METROPOLITANA DE SALVADOR", "Municipio": "Itanagra" }, "geometry": { "type": "Point", "coordinates": [ -38.10683540399998, -12.324055060999967 ] } },
{ "type": "Feature", "properties": { "OBJECTID": 44, "ID": 54.0, "Ponto": "TCL37", "LONGITUDE": 620070.0, "LATITUDE": 8652616.0, "Elev": 43.0, "Mesoregiao": "NORDESTE BAIANO", "Municipio": "Esplanada" }, "geometry": { "type": "Point", "coordinates": [ -37.896313866999947, -12.186167979999937 ] } },
{ "type": "Feature", "properties": { "OBJECTID": 45, "ID": 55.0, "Ponto": "TCL38", "LONGITUDE": 271173.0, "LATITUDE": 8626544.0, "Elev": 504.0, "Mesoregiao": "CENTRO NORTE BAIANO", "Municipio": "Lajedinho" }, "geometry": { "type": "Point", "coordinates": [ -41.104898232999972, -12.415974475999974 ] } },
{ "type": "Feature", "properties": { "OBJECTID": 46, "ID": 56.0, "Ponto": "TCL39", "LONGITUDE": 296420.0, "LATITUDE": 8600695.0, "Elev": 599.0, "Mesoregiao": "CENTRO NORTE BAIANO", "Municipio": "Ibiquera" }, "geometry": { "type": "Point", "coordinates": [ -40.874440773999936, -12.65130587699997 ] } },
{ "type": "Feature", "properties": { "OBJECTID": 47, "ID": 57.0, "Ponto": "TCL40", "LONGITUDE": 350670.0, "LATITUDE": 8614035.0, "Elev": 278.0, "Mesoregiao": "CENTRO NORTE BAIANO", "Municipio": "Itaberaba" }, "geometry": { "type": "Point", "coordinates": [ -40.374416739999958, -12.533754087999966 ] } },
{ "type": "Feature", "properties": { "OBJECTID": 48, "ID": 58.0, "Ponto": "TCL41", "LONGITUDE": 374835.0, "LATITUDE": 8591054.0, "Elev": 247.0, "Mesoregiao": "CENTRO NORTE BAIANO", "Municipio": "Iaçu" }, "geometry": { "type": "Point", "coordinates": [ -40.152970695999954, -12.742573680999953 ] } },
{ "type": "Feature", "properties": { "OBJECTID": 49, "ID": 59.0, "Ponto": "TCL42", "LONGITUDE": 426743.0, "LATITUDE": 8595472.0, "Elev": 234.0, "Mesoregiao": "CENTRO NORTE BAIANO", "Municipio": "Itatim" }, "geometry": { "type": "Point", "coordinates": [ -39.674740655999983, -12.704276417999949 ] } },
{ "type": "Feature", "properties": { "OBJECTID": 50, "ID": 60.0, "Ponto": "TCL43", "LONGITUDE": 466792.0, "LATITUDE": 8597827.0, "Elev": 207.0, "Mesoregiao": "METROPOLITANA DE SALVADOR", "Municipio": "Castro Alves" }, "geometry": { "type": "Point", "coordinates": [ -39.305845961999978, -12.683662206999941 ] } },
{ "type": "Feature", "properties": { "OBJECTID": 51, "ID": 61.0, "Ponto": "TCL44", "LONGITUDE": 488563.0, "LATITUDE": 8599649.0, "Elev": 230.0, "Mesoregiao": "METROPOLITANA DE SALVADOR", "Municipio": "Cruz das Almas" }, "geometry": { "type": "Point", "coordinates": [ -39.105328562999944, -12.667341108999949 ] } },
{ "type": "Feature", "properties": { "OBJECTID": 52, "ID": 62.0, "Ponto": "TCL45", "LONGITUDE": 537677.0, "LATITUDE": 8604478.0, "Elev": 1.0, "Mesoregiao": "METROPOLITANA DE SALVADOR", "Municipio": "São Francisco do Conde" }, "geometry": { "type": "Point", "coordinates": [ -38.653076256999952, -12.62346807199998 ] } },
{ "type": "Feature", "properties": { "OBJECTID": 53, "ID": 63.0, "Ponto": "TCL46", "LONGITUDE": 570125.0, "LATITUDE": 8614895.0, "Elev": 83.0, "Mesoregiao": "METROPOLITANA DE SALVADOR", "Municipio": "Mata de São João" }, "geometry": { "type": "Point", "coordinates": [ -38.354545812999959, -12.528717626999935 ] } },
{ "type": "Feature", "properties": { "OBJECTID": 54, "ID": 64.0, "Ponto": "TCL47", "LONGITUDE": 292418.0, "LATITUDE": 8567648.0, "Elev": 345.0, "Mesoregiao": "CENTRO NORTE BAIANO", "Municipio": "Boa Vista do Tupim" }, "geometry": { "type": "Point", "coordinates": [ -40.913525884999956, -12.949715818999948 ] } },
{ "type": "Feature", "properties": { "OBJECTID": 55, "ID": 65.0, "Ponto": "TCL48", "LONGITUDE": 351326.0, "LATITUDE": 8582474.0, "Elev": 272.0, "Mesoregiao": "CENTRO NORTE BAIANO", "Municipio": "Iaçu" }, "geometry": { "type": "Point", "coordinates": [ -40.369904297999938, -12.819107115999941 ] } },
{ "type": "Feature", "properties": { "OBJECTID": 56, "ID": 66.0, "Ponto": "TCL49", "LONGITUDE": 375489.0, "LATITUDE": 8552929.0, "Elev": 710.0, "Mesoregiao": "CENTRO SUL BAIANO", "Municipio": "Nova Itarana" }, "geometry": { "type": "Point", "coordinates": [ -40.148520576999942, -13.087286089999964 ] } },
{ "type": "Feature", "properties": { "OBJECTID": 57, "ID": 67.0, "Ponto": "TCL50", "LONGITUDE": 408002.0, "LATITUDE": 8579458.0, "Elev": 353.0, "Mesoregiao": "CENTRO NORTE BAIANO", "Municipio": "Itatim" }, "geometry": { "type": "Point", "coordinates": [ -39.847827179999967, -12.848577985999952 ] } },
{ "type": "Feature", "properties": { "OBJECTID": 58, "ID": 68.0, "Ponto": "TCL51", "LONGITUDE": 448028.0, "LATITUDE": 8573786.0, "Elev": 416.0, "Mesoregiao": "CENTRO NORTE BAIANO", "Municipio": "Elísio Medrado" }, "geometry": { "type": "Point", "coordinates": [ -39.479068997999946, -12.900798909999935 ] } },
{ "type": "Feature", "properties": { "OBJECTID": 59, "ID": 69.0, "Ponto": "TCL52", "LONGITUDE": 510553.0, "LATITUDE": 8564636.0, "Elev": 47.0, "Mesoregiao": "METROPOLITANA DE SALVADOR", "Municipio": "Jaguaripe" }, "geometry": { "type": "Point", "coordinates": [ -38.902691020999953, -12.983960600999978 ] } },
{ "type": "Feature", "properties": { "OBJECTID": 60, "ID": 70.0, "Ponto": "TCL53", "LONGITUDE": 538619.0, "LATITUDE": 8571746.0, "Elev": 45.0, "Mesoregiao": "METROPOLITANA DE SALVADOR", "Municipio": "Itaparica" }, "geometry": { "type": "Point", "coordinates": [ -38.643988602999968, -12.919442274999938 ] } },
{ "type": "Feature", "properties": { "OBJECTID": 61, "ID": 71.0, "Ponto": "TCL54", "LONGITUDE": 360217.0, "LATITUDE": 8509178.0, "Elev": 878.0, "Mesoregiao": "CENTRO SUL BAIANO", "Municipio": "Lajedo do Tabocal" }, "geometry": { "type": "Point", "coordinates": [ -40.291459741999972, -13.482139103999941 ] } },
{ "type": "Feature", "properties": { "OBJECTID": 62, "ID": 72.0, "Ponto": "TCL55", "LONGITUDE": 400350.0, "LATITUDE": 8544706.0, "Elev": 842.0, "Mesoregiao": "CENTRO SUL BAIANO", "Municipio": "Brejões" }, "geometry": { "type": "Point", "coordinates": [ -39.91949632799998, -13.16255253199995 ] } },
{ "type": "Feature", "properties": { "OBJECTID": 63, "ID": 73.0, "Ponto": "TCL56", "LONGITUDE": 415398.0, "LATITUDE": 8520723.0, "Elev": 893.0, "Mesoregiao": "CENTRO SUL BAIANO", "Municipio": "Santa Inês" }, "geometry": { "type": "Point", "coordinates": [ -39.781347234999942, -13.379858886999955 ] } },
{ "type": "Feature", "properties": { "OBJECTID": 64, "ID": 74.0, "Ponto": "TCL57", "LONGITUDE": 469858.0, "LATITUDE": 8515361.0, "Elev": 211.0, "Mesoregiao": "SUL BAIANO", "Municipio": "Valença" }, "geometry": { "type": "Point", "coordinates": [ -39.278442164999944, -13.429397714999936 ] } },
{ "type": "Feature", "properties": { "OBJECTID": 65, "ID": 75.0, "Ponto": "TCL58", "LONGITUDE": 489837.0, "LATITUDE": 8511103.0, "Elev": 20.0, "Mesoregiao": "SUL BAIANO", "Municipio": "Valença" }, "geometry": { "type": "Point", "coordinates": [ -39.093897885999979, -13.468036527999971 ] } },
{ "type": "Feature", "properties": { "OBJECTID": 66, "ID": 76.0, "Ponto": "TCL59", "LONGITUDE": 329981.0, "LATITUDE": 8504080.0, "Elev": 741.0, "Mesoregiao": "CENTRO SUL BAIANO", "Municipio": "Maracás" }, "geometry": { "type": "Point", "coordinates": [ -40.57104508599997, -13.526627761999976 ] } },
{ "type": "Feature", "properties": { "OBJECTID": 67, "ID": 77.0, "Ponto": "TCL60", "LONGITUDE": 356735.0, "LATITUDE": 8503230.0, "Elev": 737.0, "Mesoregiao": "CENTRO SUL BAIANO", "Municipio": "Lajedo do Tabocal" }, "geometry": { "type": "Point", "coordinates": [ -40.323920677999979, -13.535741096999971 ] } },
{ "type": "Feature", "properties": { "OBJECTID": 68, "ID": 78.0, "Ponto": "TCL61", "LONGITUDE": 412885.0, "LATITUDE": 8485038.0, "Elev": 406.0, "Mesoregiao": "CENTRO SUL BAIANO", "Municipio": "Jaguaquara" }, "geometry": { "type": "Point", "coordinates": [ -39.805639655999983, -13.702429732999974 ] } },
{ "type": "Feature", "properties": { "OBJECTID": 69, "ID": 79.0, "Ponto": "TCL62", "LONGITUDE": 451179.0, "LATITUDE": 8480706.0, "Elev": 319.0, "Mesoregiao": "SUL BAIANO", "Municipio": "Gandu" }, "geometry": { "type": "Point", "coordinates": [ -39.451582430999963, -13.742499180999971 ] } },
{ "type": "Feature", "properties": { "OBJECTID": 70, "ID": 80.0, "Ponto": "TCL63", "LONGITUDE": 485551.0, "LATITUDE": 8467577.0, "Elev": 35.0, "Mesoregiao": "SUL BAIANO", "Municipio": "Igrapiúna" }, "geometry": { "type": "Point", "coordinates": [ -39.133718709999982, -13.861590232999959 ] } },
{ "type": "Feature", "properties": { "OBJECTID": 71, "ID": 81.0, "Ponto": "TCL64", "LONGITUDE": 326501.0, "LATITUDE": 8441083.0, "Elev": 428.0, "Mesoregiao": "CENTRO SUL BAIANO", "Municipio": "Manoel Vitorino" }, "geometry": { "type": "Point", "coordinates": [ -40.607090629999959, -14.095826508999949 ] } },
{ "type": "Feature", "properties": { "OBJECTID": 72, "ID": 82.0, "Ponto": "TCL65", "LONGITUDE": 375971.0, "LATITUDE": 8450654.0, "Elev": 244.0, "Mesoregiao": "CENTRO SUL BAIANO", "Municipio": "Jequié" }, "geometry": { "type": "Point", "coordinates": [ -40.148505616999955, -14.011923506999949 ] } },
{ "type": "Feature", "properties": { "OBJECTID": 73, "ID": 83.0, "Ponto": "TCL66", "LONGITUDE": 400985.0, "LATITUDE": 8442925.0, "Elev": 215.0, "Mesoregiao": "CENTRO SUL BAIANO", "Municipio": "Aiquara" }, "geometry": { "type": "Point", "coordinates": [ -39.917178375999981, -14.08278685099998 ] } },
{ "type": "Feature", "properties": { "OBJECTID": 74, "ID": 84.0, "Ponto": "TCL67", "LONGITUDE": 425393.0, "LATITUDE": 8450561.0, "Elev": 248.0, "Mesoregiao": "SUL BAIANO", "Municipio": "Ipiaú" }, "geometry": { "type": "Point", "coordinates": [ -39.690893011999947, -14.014501165999945 ] } },
{ "type": "Feature", "properties": { "OBJECTID": 75, "ID": 85.0, "Ponto": "TCL68", "LONGITUDE": 480261.0, "LATITUDE": 8448972.0, "Elev": 148.0, "Mesoregiao": "SUL BAIANO", "Municipio": "Camamu" }, "geometry": { "type": "Point", "coordinates": [ -39.182807418999971, -14.029784838999944 ] } },
{ "type": "Feature", "properties": { "OBJECTID": 76, "ID": 86.0, "Ponto": "TCL69", "LONGITUDE": 445240.0, "LATITUDE": 8738935.0, "Elev": 349.0, "Mesoregiao": "NORDESTE BAIANO", "Municipio": "Valente" }, "geometry": { "type": "Point", "coordinates": [ -39.501959769999985, -11.407319555999948 ] } },
{ "type": "Feature", "properties": { "OBJECTID": 77, "ID": 87.0, "Ponto": "TCL70", "LONGITUDE": 459113.0, "LATITUDE": 8726055.0, "Elev": 340.0, "Mesoregiao": "NORDESTE BAIANO", "Municipio": "Retirolândia" }, "geometry": { "type": "Point", "coordinates": [ -39.374948153999981, -11.523990072999936 ] } },
{ "type": "Feature", "properties": { "OBJECTID": 78, "ID": 88.0, "Ponto": "TCL71", "LONGITUDE": 480895.0, "LATITUDE": 8740978.0, "Elev": 356.0, "Mesoregiao": "NORDESTE BAIANO", "Municipio": "Conceição do Coité" }, "geometry": { "type": "Point", "coordinates": [ -39.175117504999946, -11.389220068999975 ] } },
{ "type": "Feature", "properties": { "OBJECTID": 79, "ID": 89.0, "Ponto": "TCL72", "LONGITUDE": 496775.0, "LATITUDE": 8751639.0, "Elev": 269.0, "Mesoregiao": "NORDESTE BAIANO", "Municipio": "Araci" }, "geometry": { "type": "Point", "coordinates": [ -39.029550666999967, -11.292854777999935 ] } },
{ "type": "Feature", "properties": { "OBJECTID": 80, "ID": 90.0, "Ponto": "TCL73", "LONGITUDE": 567645.0, "LATITUDE": 8688643.0, "Elev": 225.0, "Mesoregiao": "NORDESTE BAIANO", "Municipio": "Inhambupe" }, "geometry": { "type": "Point", "coordinates": [ -38.378925954999943, -11.861888721999946 ] } },
{ "type": "Feature", "properties": { "OBJECTID": 81, "ID": 91.0, "Ponto": "TCL74", "LONGITUDE": 598352.0, "LATITUDE": 8674004.0, "Elev": 174.0, "Mesoregiao": "NORDESTE BAIANO", "Municipio": "Entre Rios" }, "geometry": { "type": "Point", "coordinates": [ -38.096576173999949, -11.993499855999971 ] } },
{ "type": "Feature", "properties": { "OBJECTID": 82, "ID": 92.0, "Ponto": "TCL75", "LONGITUDE": 642096.0, "LATITUDE": 8678921.0, "Elev": 25.0, "Mesoregiao": "NORDESTE BAIANO", "Municipio": "Conde" }, "geometry": { "type": "Point", "coordinates": [ -37.695035573999974, -11.947460840999952 ] } },
{ "type": "Feature", "properties": { "OBJECTID": 83, "ID": 93.0, "Ponto": "TCL76", "LONGITUDE": 648901.0, "LATITUDE": 8689213.0, "Elev": 33.0, "Mesoregiao": "NORDESTE BAIANO", "Municipio": "Conde" }, "geometry": { "type": "Point", "coordinates": [ -37.633017802999973, -11.85411523199997 ] } },
{ "type": "Feature", "properties": { "OBJECTID": 84, "ID": 94.0, "Ponto": "TCL77", "LONGITUDE": 482258.0, "LATITUDE": 8602093.0, "Elev": 228.0, "Mesoregiao": "METROPOLITANA DE SALVADOR", "Municipio": "Cruz das Almas" }, "geometry": { "type": "Point", "coordinates": [ -39.163379991999932, -12.645210901999974 ] } },
{ "type": "Feature", "properties": { "OBJECTID": 85, "ID": 95.0, "Ponto": "TCL78", "LONGITUDE": 528389.0, "LATITUDE": 8607550.0, "Elev": 12.0, "Mesoregiao": "METROPOLITANA DE SALVADOR", "Municipio": "Santo Amaro" }, "geometry": { "type": "Point", "coordinates": [ -38.73862610599997, -12.595785758999966 ] } },
{ "type": "Feature", "properties": { "OBJECTID": 86, "ID": 96.0, "Ponto": "TCL79", "LONGITUDE": 541818.0, "LATITUDE": 8627629.0, "Elev": 90.0, "Mesoregiao": "METROPOLITANA DE SALVADOR", "Municipio": "Terra Nova" }, "geometry": { "type": "Point", "coordinates": [ -38.615257448999955, -12.414065004999941 ] } },
{ "type": "Feature", "properties": { "OBJECTID": 87, "ID": 97.0, "Ponto": "TCL80", "LONGITUDE": 604379.0, "LATITUDE": 8610500.0, "Elev": 25.0, "Mesoregiao": "METROPOLITANA DE SALVADOR", "Municipio": "Mata de São João" }, "geometry": { "type": "Point", "coordinates": [ -38.039139059999968, -12.56751431899994 ] } },
{ "type": "Feature", "properties": { "OBJECTID": 88, "ID": 98.0, "Ponto": "TCL81", "LONGITUDE": 446493.0, "LATITUDE": 8580049.0, "Elev": 466.0, "Mesoregiao": "CENTRO NORTE BAIANO", "Municipio": "Santa Teresinha" }, "geometry": { "type": "Point", "coordinates": [ -39.49310731199995, -12.844139637999945 ] } },
{ "type": "Feature", "properties": { "OBJECTID": 89, "ID": 99.0, "Ponto": "TCL82", "LONGITUDE": 390171.0, "LATITUDE": 8536726.0, "Elev": 652.0, "Mesoregiao": "CENTRO SUL BAIANO", "Municipio": "Irajuba" }, "geometry": { "type": "Point", "coordinates": [ -40.01370815699994, -13.234347419999949 ] } },
{ "type": "Feature", "properties": { "OBJECTID": 90, "ID": 100.0, "Ponto": "TCL83", "LONGITUDE": 463460.0, "LATITUDE": 8533269.0, "Elev": 206.0, "Mesoregiao": "SUL BAIANO", "Municipio": "Valença" }, "geometry": { "type": "Point", "coordinates": [ -39.337319330999946, -13.267395730999965 ] } },
{ "type": "Feature", "properties": { "OBJECTID": 91, "ID": 101.0, "Ponto": "TCL84", "LONGITUDE": 495891.0, "LATITUDE": 8536231.0, "Elev": 3.0, "Mesoregiao": "METROPOLITANA DE SALVADOR", "Municipio": "Jaguaripe" }, "geometry": { "type": "Point", "coordinates": [ -39.037928348999969, -13.24083213199998 ] } },
{ "type": "Feature", "properties": { "OBJECTID": 92, "ID": 102.0, "Ponto": "TCL85", "LONGITUDE": 497644.0, "LATITUDE": 8527273.0, "Elev": 11.0, "Mesoregiao": "SUL BAIANO", "Municipio": "Valença" }, "geometry": { "type": "Point", "coordinates": [ -39.021754399999963, -13.321836904999941 ] } },
{ "type": "Feature", "properties": { "OBJECTID": 93, "ID": 103.0, "Ponto": "TCL86", "LONGITUDE": 500379.0, "LATITUDE": 8485015.0, "Elev": 9.0, "Mesoregiao": "SUL BAIANO", "Municipio": "Nilo Peçanha" }, "geometry": { "type": "Point", "coordinates": [ -38.996494881999979, -13.703949588999933 ] } }
]
}
