{
"type": "FeatureCollection",
"name": "pontos",
"crs": { "type": "name", "properties": { "name": "urn:ogc:def:crs:OGC:1.3:CRS84" } },
"features": [
{ "type": "Feature", "properties": { "OBJECTID": 1, "Ponto": "TCL01", "Elev": 430.0, "Regiao_Int": "Paulo Afonso", "Mesoregiao": "NORDESTE BAIANO", "Municipio": "Monte Santo", "Distrito": "Monte Santo" }, "geometry": { "type": "Point", "coordinates": [ -39.598190330999955, -10.261500004999959 ] } },
{ "type": "Feature", "properties": { "OBJECTID": 2, "Ponto": "TCL02", "Elev": 509.0, "Regiao_Int": "Paulo Afonso", "Mesoregiao": "NORDESTE BAIANO", "Municipio": "Monte Santo", "Distrito": "Monte Santo" }, "geometry": { "type": "Point", "coordinates": [ -39.477537806999976, -10.32334455299997 ] } },
{ "type": "Feature", "properties": { "OBJECTID": 3, "Ponto": "TCL03", "Elev": 333.0, "Regiao_Int": "Juazeiro", "Mesoregiao": "CENTRO NORTE BAIANO", "Municipio": "Itiúba", "Distrito": "Itiúba" }, "geometry": { "type": "Point", "coordinates": [ -39.986530559999949, -10.88202333199996 ] } },
{ "type": "Feature", "properties": { "OBJECTID": 4, "Ponto": "TCL04", "Elev": 438.0, "Regiao_Int": "Paulo Afonso", "Mesoregiao": "NORDESTE BAIANO", "Municipio": "Cansanção", "Distrito": "Cansanção" }, "geometry": { "type": "Point", "coordinates": [ -39.466670678999947, -10.623685531999968 ] } },
{ "type": "Feature", "properties": { "OBJECTID": 5, "Ponto": "TCL05", "Elev": 306.0, "Regiao_Int": "Paulo Afonso", "Mesoregiao": "NORDESTE BAIANO", "Municipio": "Quijingue", "Distrito": "Quijingue" }, "geometry": { "type": "Point", "coordinates": [ -39.135472209999932, -10.767389065999964 ] } },
{ "type": "Feature", "properties": { "OBJECTID": 6, "Ponto": "TCL06", "Elev": 431.0, "Regiao_Int": "Paulo Afonso", "Mesoregiao": "NORDESTE BAIANO", "Municipio": "Quijingue", "Distrito": "Algodoes" }, "geometry": { "type": "Point", "coordinates": [ -38.847858083999938, -10.666304000999958 ] } },
{ "type": "Feature", "properties": { "OBJECTID": 7, "Ponto": "TCL07", "Elev": 389.0, "Regiao_Int": "Feira de Santana", "Mesoregiao": "CENTRO NORTE BAIANO", "Municipio": "Jacobina", "Distrito": "Junco" }, "geometry": { "type": "Point", "coordinates": [ -40.037658951999958, -11.216720101999954 ] } },
{ "type": "Feature", "properties": { "OBJECTID": 8, "Ponto": "TCL08", "Elev": 318.0, "Regiao_Int": "Feira de Santana", "Mesoregiao": "NORDESTE BAIANO", "Municipio": "Queimadas", "Distrito": "Queimadas" }, "geometry": { "type": "Point", "coordinates": [ -39.505689601999961, -11.081031570999926 ] } },
{ "type": "Feature", "properties": { "OBJECTID": 9, "Ponto": "TCL09", "Elev": 275.0, "Regiao_Int": "Feira de Santana", "Mesoregiao": "NORDESTE BAIANO", "Municipio": "Araci", "Distrito": "Araci" }, "geometry": { "type": "Point", "coordinates": [ -39.125645143999975, -11.106878690999963 ] } },
{ "type": "Feature", "properties": { "OBJECTID": 10, "Ponto": "TCL10", "Elev": 217.0, "Regiao_Int": "Paulo Afonso", "Mesoregiao": "NORDESTE BAIANO", "Municipio": "Tucano", "Distrito": "Tucano" }, "geometry": { "type": "Point", "coordinates": [ -38.843227370999955, -11.162755360999938 ] } },
{ "type": "Feature", "properties": { "OBJECTID": 11, "Ponto": "TCL11", "Elev": 232.0, "Regiao_Int": "Salvador", "Mesoregiao": "NORDESTE BAIANO", "Municipio": "Itapicuru", "Distrito": "Sambaíba" }, "geometry": { "type": "Point", "coordinates": [ -38.13254335299996, -11.24666205699998 ] } },
{ "type": "Feature", "properties": { "OBJECTID": 12, "Ponto": "TCL111", "Elev": 248.0, "Regiao_Int": "Feira de Santana", "Mesoregiao": "CENTRO NORTE BAIANO", "Municipio": "Ipirá", "Distrito": "Ipirá" }, "geometry": { "type": "Point", "coordinates": [ -39.614143166999952, -12.202187735999928 ] } },
{ "type": "Feature", "properties": { "OBJECTID": 13, "Ponto": "TCL112", "Elev": 198.0, "Regiao_Int": "Feira de Santana", "Mesoregiao": "CENTRO NORTE BAIANO", "Municipio": "Anguera", "Distrito": "Anguera" }, "geometry": { "type": "Point", "coordinates": [ -39.225401374999933, -12.165241590999926 ] } },
{ "type": "Feature", "properties": { "OBJECTID": 14, "Ponto": "TCL113", "Elev": 214.0, "Regiao_Int": "Feira de Santana", "Mesoregiao": "CENTRO NORTE BAIANO", "Municipio": "Feira de Santana", "Distrito": "Pampalona" }, "geometry": { "type": "Point", "coordinates": [ -38.943734120999977, -12.308500179999953 ] } },
{ "type": "Feature", "properties": { "OBJECTID": 15, "Ponto": "TCL114", "Elev": 191.0, "Regiao_Int": "Salvador", "Mesoregiao": "METROPOLITANA DE SALVADOR", "Municipio": "Santo Amaro", "Distrito": "Campinhos" }, "geometry": { "type": "Point", "coordinates": [ -38.798402837999959, -12.421958664999977 ] } },
{ "type": "Feature", "properties": { "OBJECTID": 16, "Ponto": "TCL115", "Elev": 15.0, "Regiao_Int": "Salvador", "Mesoregiao": "METROPOLITANA DE SALVADOR", "Municipio": "Santo Amaro", "Distrito": "Santo Amaro" }, "geometry": { "type": "Point", "coordinates": [ -38.722641650999947, -12.545626703999972 ] } },
{ "type": "Feature", "properties": { "OBJECTID": 17, "Ponto": "TCL117", "Elev": 22.0, "Regiao_Int": "Salvador", "Mesoregiao": "METROPOLITANA DE SALVADOR", "Municipio": "Salvador", "Distrito": "Itapoá" }, "geometry": { "type": "Point", "coordinates": [ -38.340171080999937, -12.934141986999975 ] } },
{ "type": "Feature", "properties": { "OBJECTID": 18, "Ponto": "TCL12", "Elev": 445.0, "Regiao_Int": "Feira de Santana", "Mesoregiao": "CENTRO NORTE BAIANO", "Municipio": "Várzea da Roça", "Distrito": "Várzea da Roça" }, "geometry": { "type": "Point", "coordinates": [ -40.210835870999972, -11.569605534999937 ] } },
{ "type": "Feature", "properties": { "OBJECTID": 19, "Ponto": "TCL13", "Elev": 329.0, "Regiao_Int": "Feira de Santana", "Mesoregiao": "NORDESTE BAIANO", "Municipio": "Gavião", "Distrito": "Gavião" }, "geometry": { "type": "Point", "coordinates": [ -39.749967370999968, -11.452440038999953 ] } },
{ "type": "Feature", "properties": { "OBJECTID": 20, "Ponto": "TCL14", "Elev": 297.0, "Regiao_Int": "Feira de Santana", "Mesoregiao": "NORDESTE BAIANO", "Municipio": "Retirolândia", "Distrito": "Retirolândia" }, "geometry": { "type": "Point", "coordinates": [ -39.455167844999949, -11.500480223999944 ] } },
{ "type": "Feature", "properties": { "OBJECTID": 21, "Ponto": "TCL15", "Elev": 190.0, "Regiao_Int": "Feira de Santana", "Mesoregiao": "NORDESTE BAIANO", "Municipio": "Teofilândia", "Distrito": "Teofilândia" }, "geometry": { "type": "Point", "coordinates": [ -39.007170555999949, -11.496123889999978 ] } },
{ "type": "Feature", "properties": { "OBJECTID": 22, "Ponto": "TCL16", "Elev": 423.0, "Regiao_Int": null, "Mesoregiao": null, "Municipio": null, "Distrito": null }, "geometry": { "type": "Point", "coordinates": [ -38.751597424999943, -11.476637628999981 ] } },
{ "type": "Feature", "properties": { "OBJECTID": 23, "Ponto": "TCL17", "Elev": 200.0, "Regiao_Int": "Paulo Afonso", "Mesoregiao": "NORDESTE BAIANO", "Municipio": "Olindina", "Distrito": "Olindina" }, "geometry": { "type": "Point", "coordinates": [ -38.383500677999962, -11.363901619999979 ] } },
{ "type": "Feature", "properties": { "OBJECTID": 24, "Ponto": "TCL18", "Elev": 200.0, "Regiao_Int": "Salvador", "Mesoregiao": "NORDESTE BAIANO", "Municipio": "Crisópolis", "Distrito": "Buril" }, "geometry": { "type": "Point", "coordinates": [ -38.254845282999952, -11.480503768999938 ] } },
{ "type": "Feature", "properties": { "OBJECTID": 25, "Ponto": "TCL19", "Elev": 90.0, "Regiao_Int": "Salvador", "Mesoregiao": "NORDESTE BAIANO", "Municipio": "Jandaíra", "Distrito": "Jandaíra" }, "geometry": { "type": "Point", "coordinates": [ -37.671517061999964, -11.577046346999964 ] } },
{ "type": "Feature", "properties": { "OBJECTID": 26, "Ponto": "TCL20", "Elev": 729.0, "Regiao_Int": "Feira de Santana", "Mesoregiao": "CENTRO NORTE BAIANO", "Municipio": "Tapiramutá", "Distrito": "Tapiramutá" }, "geometry": { "type": "Point", "coordinates": [ -40.762012282999933, -11.937464232999957 ] } },
{ "type": "Feature", "properties": { "OBJECTID": 27, "Ponto": "TCL21", "Elev": 394.0, "Regiao_Int": "Feira de Santana", "Mesoregiao": "CENTRO NORTE BAIANO", "Municipio": "Baixa Grande", "Distrito": "Baixa Grande" }, "geometry": { "type": "Point", "coordinates": [ -40.300612018999971, -11.966675633999955 ] } },
{ "type": "Feature", "properties": { "OBJECTID": 28, "Ponto": "TCL217", "Elev": 128.0, "Regiao_Int": "Paulo Afonso", "Mesoregiao": "NORDESTE BAIANO", "Municipio": "Olindina", "Distrito": "Olindina" }, "geometry": { "type": "Point", "coordinates": [ -38.334017219999964, -11.337568579999981 ] } },
{ "type": "Feature", "properties": { "OBJECTID": 29, "Ponto": "TCL22", "Elev": 293.0, "Regiao_Int": "Feira de Santana", "Mesoregiao": "CENTRO NORTE BAIANO", "Municipio": "Ipirá", "Distrito": "Bonfim de Ipira" }, "geometry": { "type": "Point", "coordinates": [ -39.812977697999941, -11.934674775999952 ] } },
{ "type": "Feature", "properties": { "OBJECTID": 30, "Ponto": "TCL23", "Elev": 258.0, "Regiao_Int": "Feira de Santana", "Mesoregiao": "NORDESTE BAIANO", "Municipio": "Riachao do Jacuipe", "Distrito": "Riachao do Jacuipe" }, "geometry": { "type": "Point", "coordinates": [ -39.504180954999981, -11.77214147799998 ] } },
{ "type": "Feature", "properties": { "OBJECTID": 31, "Ponto": "TCL24", "Elev": 236.0, "Regiao_Int": "Feira de Santana", "Mesoregiao": "NORDESTE BAIANO", "Municipio": "Riachao do Jacuipe", "Distrito": "Riachao do Jacuipe" }, "geometry": { "type": "Point", "coordinates": [ -39.292085783999937, -11.787567387999957 ] } },
{ "type": "Feature", "properties": { "OBJECTID": 32, "Ponto": "TCL25", "Elev": 214.0, "Regiao_Int": "Feira de Santana", "Mesoregiao": "CENTRO NORTE BAIANO", "Municipio": "Santanópolis", "Distrito": "Santanópolis" }, "geometry": { "type": "Point", "coordinates": [ -38.894564370999944, -11.967635255999937 ] } },
{ "type": "Feature", "properties": { "OBJECTID": 33, "Ponto": "TCL26", "Elev": 263.0, "Regiao_Int": "Salvador", "Mesoregiao": "NORDESTE BAIANO", "Municipio": "Aramari", "Distrito": "Aramari" }, "geometry": { "type": "Point", "coordinates": [ -38.583669019999945, -12.004658393999932 ] } },
{ "type": "Feature", "properties": { "OBJECTID": 34, "Ponto": "TCL27", "Elev": 237.0, "Regiao_Int": "Salvador", "Mesoregiao": "NORDESTE BAIANO", "Municipio": "Aporá", "Distrito": "Aporá" }, "geometry": { "type": "Point", "coordinates": [ -38.157293785999968, -11.689333774999966 ] } },
{ "type": "Feature", "properties": { "OBJECTID": 35, "Ponto": "TCL28", "Elev": 99.0, "Regiao_Int": "Salvador", "Mesoregiao": "NORDESTE BAIANO", "Municipio": "Conde", "Distrito": "Conde" }, "geometry": { "type": "Point", "coordinates": [ -37.68201000199997, -11.851345841999944 ] } },
{ "type": "Feature", "properties": { "OBJECTID": 36, "Ponto": "TCL29", "Elev": 627.0, "Regiao_Int": "Feira de Santana", "Mesoregiao": "CENTRO NORTE BAIANO", "Municipio": "Ruy Barbosa", "Distrito": "Tapiraipe" }, "geometry": { "type": "Point", "coordinates": [ -40.791644479999945, -12.123116040999946 ] } },
{ "type": "Feature", "properties": { "OBJECTID": 37, "Ponto": "TCL30", "Elev": 349.0, "Regiao_Int": "Feira de Santana", "Mesoregiao": "CENTRO NORTE BAIANO", "Municipio": "Macajuba", "Distrito": "Macajuba" }, "geometry": { "type": "Point", "coordinates": [ -40.281023795999943, -12.055822555999953 ] } },
{ "type": "Feature", "properties": { "OBJECTID": 38, "Ponto": "TCL31", "Elev": 248.0, "Regiao_Int": "Feira de Santana", "Mesoregiao": "CENTRO NORTE BAIANO", "Municipio": "Ipirá", "Distrito": "Ipirá" }, "geometry": { "type": "Point", "coordinates": [ -39.901878820999968, -12.29868124199993 ] } },
{ "type": "Feature", "properties": { "OBJECTID": 39, "Ponto": "TCL32", "Elev": 279.0, "Regiao_Int": "Feira de Santana", "Mesoregiao": "CENTRO NORTE BAIANO", "Municipio": "Ipirá", "Distrito": "Bonfim de Ipira" }, "geometry": { "type": "Point", "coordinates": [ -39.614615369999967, -12.039063054999929 ] } },
{ "type": "Feature", "properties": { "OBJECTID": 40, "Ponto": "TCL33", "Elev": 165.0, "Regiao_Int": "Feira de Santana", "Mesoregiao": "CENTRO NORTE BAIANO", "Municipio": "Ipecaetá", "Distrito": "Ipecaetá" }, "geometry": { "type": "Point", "coordinates": [ -39.298686973999963, -12.328698719999977 ] } },
{ "type": "Feature", "properties": { "OBJECTID": 41, "Ponto": "TCL34", "Elev": 230.0, "Regiao_Int": "Feira de Santana", "Mesoregiao": "CENTRO NORTE BAIANO", "Municipio": "Feira de Santana", "Distrito": "Maria Quiteria" }, "geometry": { "type": "Point", "coordinates": [ -39.028913002999957, -12.123778072999926 ] } },
{ "type": "Feature", "properties": { "OBJECTID": 42, "Ponto": "TCL35", "Elev": 207.0, "Regiao_Int": "Salvador", "Mesoregiao": "NORDESTE BAIANO", "Municipio": "Aramari", "Distrito": "Aramari" }, "geometry": { "type": "Point", "coordinates": [ -38.562495357999978, -12.168477811999935 ] } },
{ "type": "Feature", "properties": { "OBJECTID": 43, "Ponto": "TCL36", "Elev": 93.0, "Regiao_Int": "Salvador", "Mesoregiao": "METROPOLITANA DE SALVADOR", "Municipio": "Itanagra", "Distrito": "Itanagra" }, "geometry": { "type": "Point", "coordinates": [ -38.10683540399998, -12.324055060999967 ] } },
{ "type": "Feature", "properties": { "OBJECTID": 44, "Ponto": "TCL37", "Elev": 43.0, "Regiao_Int": "Salvador", "Mesoregiao": "NORDESTE BAIANO", "Municipio": "Esplanada", "Distrito": "Palame" }, "geometry": { "type": "Point", "coordinates": [ -37.896313866999947, -12.186167979999937 ] } },
{ "type": "Feature", "properties": { "OBJECTID": 45, "Ponto": "TCL38", "Elev": 504.0, "Regiao_Int": "Feira de Santana", "Mesoregiao": "CENTRO NORTE BAIANO", "Municipio": "Lajedinho", "Distrito": "Lajedinho" }, "geometry": { "type": "Point", "coordinates": [ -41.104898232999972, -12.415974475999974 ] } },
{ "type": "Feature", "properties": { "OBJECTID": 46, "Ponto": "TCL39", "Elev": 599.0, "Regiao_Int": "Feira de Santana", "Mesoregiao": "CENTRO NORTE BAIANO", "Municipio": "Ibiquera", "Distrito": "Ibiquera" }, "geometry": { "type": "Point", "coordinates": [ -40.874440773999936, -12.65130587699997 ] } },
{ "type": "Feature", "properties": { "OBJECTID": 47, "Ponto": "TCL40", "Elev": 278.0, "Regiao_Int": "Feira de Santana", "Mesoregiao": "CENTRO NORTE BAIANO", "Municipio": "Itaberaba", "Distrito": "Itaberaba" }, "geometry": { "type": "Point", "coordinates": [ -40.374416739999958, -12.533754087999966 ] } },
{ "type": "Feature", "properties": { "OBJECTID": 48, "Ponto": "TCL41", "Elev": 247.0, "Regiao_Int": "Feira de Santana", "Mesoregiao": "CENTRO NORTE BAIANO", "Municipio": "Iaçu", "Distrito": "Iaçu" }, "geometry": { "type": "Point", "coordinates": [ -40.152970695999954, -12.742573680999953 ] } },
{ "type": "Feature", "properties": { "OBJECTID": 49, "Ponto": "TCL42", "Elev": 234.0, "Regiao_Int": "Santo Antônio de Jesus", "Mesoregiao": "CENTRO NORTE BAIANO", "Municipio": "Itatim", "Distrito": "Itatim" }, "geometry": { "type": "Point", "coordinates": [ -39.674740655999983, -12.704276417999949 ] } },
{ "type": "Feature", "properties": { "OBJECTID": 50, "Ponto": "TCL43", "Elev": 207.0, "Regiao_Int": "Santo Antônio de Jesus", "Mesoregiao": "METROPOLITANA DE SALVADOR", "Municipio": "Castro Alves", "Distrito": "Petim" }, "geometry": { "type": "Point", "coordinates": [ -39.305845961999978, -12.683662206999941 ] } },
{ "type": "Feature", "properties": { "OBJECTID": 51, "Ponto": "TCL44", "Elev": 230.0, "Regiao_Int": "Santo Antônio de Jesus", "Mesoregiao": "METROPOLITANA DE SALVADOR", "Municipio": "Cruz das Almas", "Distrito": "Cruz das Almas" }, "geometry": { "type": "Point", "coordinates": [ -39.105328562999944, -12.667341108999949 ] } },
{ "type": "Feature", "properties": { "OBJECTID": 52, "Ponto": "TCL45", "Elev": 1.0, "Regiao_Int": "Salvador", "Mesoregiao": "METROPOLITANA DE SALVADOR", "Municipio": "São Francisco do Conde", "Distrito": "São Francisco do Conde" }, "geometry": { "type": "Point", "coordinates": [ -38.653076256999952, -12.62346807199998 ] } },
{ "type": "Feature", "properties": { "OBJECTID": 53, "Ponto": "TCL46", "Elev": 83.0, "Regiao_Int": "Salvador", "Mesoregiao": "METROPOLITANA DE SALVADOR", "Municipio": "Mata de São João", "Distrito": "Mata de São João" }, "geometry": { "type": "Point", "coordinates": [ -38.354545812999959, -12.528717626999935 ] } },
{ "type": "Feature", "properties": { "OBJECTID": 54, "Ponto": "TCL47", "Elev": 345.0, "Regiao_Int": "Feira de Santana", "Mesoregiao": "CENTRO NORTE BAIANO", "Municipio": "Boa Vista do Tupim", "Distrito": "Brejo Novo" }, "geometry": { "type": "Point", "coordinates": [ -40.913525884999956, -12.949715818999948 ] } },
{ "type": "Feature", "properties": { "OBJECTID": 55, "Ponto": "TCL48", "Elev": 272.0, "Regiao_Int": "Feira de Santana", "Mesoregiao": "CENTRO NORTE BAIANO", "Municipio": "Iaçu", "Distrito": "João Amaro" }, "geometry": { "type": "Point", "coordinates": [ -40.369904297999938, -12.819107115999941 ] } },
{ "type": "Feature", "properties": { "OBJECTID": 56, "Ponto": "TCL49", "Elev": 710.0, "Regiao_Int": "Santo Antônio de Jesus", "Mesoregiao": "CENTRO SUL BAIANO", "Municipio": "Nova Itarana", "Distrito": "Nova Itarana" }, "geometry": { "type": "Point", "coordinates": [ -40.148520576999942, -13.087286089999964 ] } },
{ "type": "Feature", "properties": { "OBJECTID": 57, "Ponto": "TCL50", "Elev": 353.0, "Regiao_Int": "Santo Antônio de Jesus", "Mesoregiao": "CENTRO NORTE BAIANO", "Municipio": "Itatim", "Distrito": "Itatim" }, "geometry": { "type": "Point", "coordinates": [ -39.847827179999967, -12.848577985999952 ] } },
{ "type": "Feature", "properties": { "OBJECTID": 58, "Ponto": "TCL51", "Elev": 416.0, "Regiao_Int": "Santo Antônio de Jesus", "Mesoregiao": "CENTRO NORTE BAIANO", "Municipio": "Elísio Medrado", "Distrito": "Monte Cruzeiro" }, "geometry": { "type": "Point", "coordinates": [ -39.479068997999946, -12.900798909999935 ] } },
{ "type": "Feature", "properties": { "OBJECTID": 59, "Ponto": "TCL52", "Elev": 47.0, "Regiao_Int": "Santo Antônio de Jesus", "Mesoregiao": "METROPOLITANA DE SALVADOR", "Municipio": "Jaguaripe", "Distrito": "Jacuruna" }, "geometry": { "type": "Point", "coordinates": [ -38.902691020999953, -12.983960600999978 ] } },
{ "type": "Feature", "properties": { "OBJECTID": 60, "Ponto": "TCL53", "Elev": 45.0, "Regiao_Int": "Santo Antônio de Jesus", "Mesoregiao": "METROPOLITANA DE SALVADOR", "Municipio": "Itaparica", "Distrito": "Itaparica" }, "geometry": { "type": "Point", "coordinates": [ -38.643988602999968, -12.919442274999938 ] } },
{ "type": "Feature", "properties": { "OBJECTID": 61, "Ponto": "TCL54", "Elev": 878.0, "Regiao_Int": "Vitória da Conquista", "Mesoregiao": "CENTRO SUL BAIANO", "Municipio": "Lajedo do Tabocal", "Distrito": "Lajedo do Tabocal" }, "geometry": { "type": "Point", "coordinates": [ -40.291459741999972, -13.482139103999941 ] } },
{ "type": "Feature", "properties": { "OBJECTID": 62, "Ponto": "TCL55", "Elev": 842.0, "Regiao_Int": "Santo Antônio de Jesus", "Mesoregiao": "CENTRO SUL BAIANO", "Municipio": "Brejões", "Distrito": "Brejões" }, "geometry": { "type": "Point", "coordinates": [ -39.91949632799998, -13.16255253199995 ] } },
{ "type": "Feature", "properties": { "OBJECTID": 63, "Ponto": "TCL56", "Elev": 893.0, "Regiao_Int": "Vitória da Conquista", "Mesoregiao": "CENTRO SUL BAIANO", "Municipio": "Santa Inês", "Distrito": "Santa Inês" }, "geometry": { "type": "Point", "coordinates": [ -39.781347234999942, -13.379858886999955 ] } },
{ "type": "Feature", "properties": { "OBJECTID": 64, "Ponto": "TCL57", "Elev": 211.0, "Regiao_Int": "Santo Antônio de Jesus", "Mesoregiao": "SUL BAIANO", "Municipio": "Valença", "Distrito": "Guerem" }, "geometry": { "type": "Point", "coordinates": [ -39.278442164999944, -13.429397714999936 ] } },
{ "type": "Feature", "properties": { "OBJECTID": 65, "Ponto": "TCL58", "Elev": 20.0, "Regiao_Int": "Santo Antônio de Jesus", "Mesoregiao": "SUL BAIANO", "Municipio": "Valença", "Distrito": "Maricoabo" }, "geometry": { "type": "Point", "coordinates": [ -39.093897885999979, -13.468036527999971 ] } },
{ "type": "Feature", "properties": { "OBJECTID": 66, "Ponto": "TCL59", "Elev": 741.0, "Regiao_Int": "Vitória da Conquista", "Mesoregiao": "CENTRO SUL BAIANO", "Municipio": "Maracás", "Distrito": "Maracás" }, "geometry": { "type": "Point", "coordinates": [ -40.57104508599997, -13.526627761999976 ] } },
{ "type": "Feature", "properties": { "OBJECTID": 67, "Ponto": "TCL60", "Elev": 737.0, "Regiao_Int": "Vitória da Conquista", "Mesoregiao": "CENTRO SUL BAIANO", "Municipio": "Lajedo do Tabocal", "Distrito": "Lajedo do Tabocal" }, "geometry": { "type": "Point", "coordinates": [ -40.323920677999979, -13.535741096999971 ] } },
{ "type": "Feature", "properties": { "OBJECTID": 68, "Ponto": "TCL61", "Elev": 406.0, "Regiao_Int": "Vitória da Conquista", "Mesoregiao": "CENTRO SUL BAIANO", "Municipio": "Jaguaquara", "Distrito": "Ipiuna" }, "geometry": { "type": "Point", "coordinates": [ -39.805639655999983, -13.702429732999974 ] } },
{ "type": "Feature", "properties": { "OBJECTID": 69, "Ponto": "TCL62", "Elev": 319.0, "Regiao_Int": "Vitória da Conquista", "Mesoregiao": "SUL BAIANO", "Municipio": "Gandu", "Distrito": "Gandu" }, "geometry": { "type": "Point", "coordinates": [ -39.451582430999963, -13.742499180999971 ] } },
{ "type": "Feature", "properties": { "OBJECTID": 70, "Ponto": "TCL63", "Elev": 35.0, "Regiao_Int": "Santo Antônio de Jesus", "Mesoregiao": "SUL BAIANO", "Municipio": "Igrapiúna", "Distrito": "Igrapiúna" }, "geometry": { "type": "Point", "coordinates": [ -39.133718709999982, -13.861590232999959 ] } },
{ "type": "Feature", "properties": { "OBJECTID": 71, "Ponto": "TCL64", "Elev": 428.0, "Regiao_Int": "Vitória da Conquista", "Mesoregiao": "CENTRO SUL BAIANO", "Municipio": "Manoel Vitorino", "Distrito": "Catingal" }, "geometry": { "type": "Point", "coordinates": [ -40.607090629999959, -14.095826508999949 ] } },
{ "type": "Feature", "properties": { "OBJECTID": 72, "Ponto": "TCL65", "Elev": 244.0, "Regiao_Int": "Vitória da Conquista", "Mesoregiao": "CENTRO SUL BAIANO", "Municipio": "Jequié", "Distrito": "Boacu" }, "geometry": { "type": "Point", "coordinates": [ -40.148505616999955, -14.011923506999949 ] } },
{ "type": "Feature", "properties": { "OBJECTID": 73, "Ponto": "TCL66", "Elev": 215.0, "Regiao_Int": "Vitória da Conquista", "Mesoregiao": "CENTRO SUL BAIANO", "Municipio": "Aiquara", "Distrito": "Aiquara" }, "geometry": { "type": "Point", "coordinates": [ -39.917178375999981, -14.08278685099998 ] } },
{ "type": "Feature", "properties": { "OBJECTID": 74, "Ponto": "TCL67", "Elev": 248.0, "Regiao_Int": "Vitória da Conquista", "Mesoregiao": "SUL BAIANO", "Municipio": "Ipiaú", "Distrito": "Ipiaú" }, "geometry": { "type": "Point", "coordinates": [ -39.690893011999947, -14.014501165999945 ] } },
{ "type": "Feature", "properties": { "OBJECTID": 75, "Ponto": "TCL68", "Elev": 148.0, "Regiao_Int": "Santo Antônio de Jesus", "Mesoregiao": "SUL BAIANO", "Municipio": "Camamu", "Distrito": "Tapuia" }, "geometry": { "type": "Point", "coordinates": [ -39.182807418999971, -14.029784838999944 ] } },
{ "type": "Feature", "properties": { "OBJECTID": 76, "Ponto": "TCL69", "Elev": 349.0, "Regiao_Int": "Feira de Santana", "Mesoregiao": "NORDESTE BAIANO", "Municipio": "Valente", "Distrito": "Valente" }, "geometry": { "type": "Point", "coordinates": [ -39.501959769999985, -11.407319555999948 ] } },
{ "type": "Feature", "properties": { "OBJECTID": 77, "Ponto": "TCL70", "Elev": 340.0, "Regiao_Int": "Feira de Santana", "Mesoregiao": "NORDESTE BAIANO", "Municipio": "Retirolândia", "Distrito": "Retirolândia" }, "geometry": { "type": "Point", "coordinates": [ -39.374948153999981, -11.523990072999936 ] } },
{ "type": "Feature", "properties": { "OBJECTID": 78, "Ponto": "TCL71", "Elev": 356.0, "Regiao_Int": "Feira de Santana", "Mesoregiao": "NORDESTE BAIANO", "Municipio": "Conceição do Coité", "Distrito": "Salgadalia" }, "geometry": { "type": "Point", "coordinates": [ -39.175117504999946, -11.389220068999975 ] } },
{ "type": "Feature", "properties": { "OBJECTID": 79, "Ponto": "TCL72", "Elev": 269.0, "Regiao_Int": "Feira de Santana", "Mesoregiao": "NORDESTE BAIANO", "Municipio": "Araci", "Distrito": "Araci" }, "geometry": { "type": "Point", "coordinates": [ -39.029550666999967, -11.292854777999935 ] } },
{ "type": "Feature", "properties": { "OBJECTID": 80, "Ponto": "TCL73", "Elev": 225.0, "Regiao_Int": "Salvador", "Mesoregiao": "NORDESTE BAIANO", "Municipio": "Inhambupe", "Distrito": "Inhambupe" }, "geometry": { "type": "Point", "coordinates": [ -38.378925954999943, -11.861888721999946 ] } },
{ "type": "Feature", "properties": { "OBJECTID": 81, "Ponto": "TCL74", "Elev": 174.0, "Regiao_Int": "Salvador", "Mesoregiao": "NORDESTE BAIANO", "Municipio": "Entre Rios", "Distrito": "Entre Rios" }, "geometry": { "type": "Point", "coordinates": [ -38.096576173999949, -11.993499855999971 ] } },
{ "type": "Feature", "properties": { "OBJECTID": 82, "Ponto": "TCL75", "Elev": 25.0, "Regiao_Int": "Salvador", "Mesoregiao": "NORDESTE BAIANO", "Municipio": "Conde", "Distrito": "Conde" }, "geometry": { "type": "Point", "coordinates": [ -37.695035573999974, -11.947460840999952 ] } },
{ "type": "Feature", "properties": { "OBJECTID": 83, "Ponto": "TCL76", "Elev": 33.0, "Regiao_Int": "Salvador", "Mesoregiao": "NORDESTE BAIANO", "Municipio": "Conde", "Distrito": "Conde" }, "geometry": { "type": "Point", "coordinates": [ -37.633017802999973, -11.85411523199997 ] } },
{ "type": "Feature", "properties": { "OBJECTID": 84, "Ponto": "TCL77", "Elev": 228.0, "Regiao_Int": "Santo Antônio de Jesus", "Mesoregiao": "METROPOLITANA DE SALVADOR", "Municipio": "Cruz das Almas", "Distrito": "Cruz das Almas" }, "geometry": { "type": "Point", "coordinates": [ -39.163379991999932, -12.645210901999974 ] } },
{ "type": "Feature", "properties": { "OBJECTID": 85, "Ponto": "TCL78", "Elev": 12.0, "Regiao_Int": "Salvador", "Mesoregiao": "METROPOLITANA DE SALVADOR", "Municipio": "Santo Amaro", "Distrito": "Acupe" }, "geometry": { "type": "Point", "coordinates": [ -38.73862610599997, -12.595785758999966 ] } },
{ "type": "Feature", "properties": { "OBJECTID": 86, "Ponto": "TCL79", "Elev": 90.0, "Regiao_Int": "Salvador", "Mesoregiao": "METROPOLITANA DE SALVADOR", "Municipio": "Terra Nova", "Distrito": "Terra Nova" }, "geometry": { "type": "Point", "coordinates": [ -38.615257448999955, -12.414065004999941 ] } },
{ "type": "Feature", "properties": { "OBJECTID": 87, "Ponto": "TCL80", "Elev": 25.0, "Regiao_Int": "Salvador", "Mesoregiao": "METROPOLITANA DE SALVADOR", "Municipio": "Mata de São João", "Distrito": "Acu da Torre" }, "geometry": { "type": "Point", "coordinates": [ -38.039139059999968, -12.56751431899994 ] } },
{ "type": "Feature", "properties": { "OBJECTID": 88, "Ponto": "TCL81", "Elev": 466.0, "Regiao_Int": "Santo Antônio de Jesus", "Mesoregiao": "CENTRO NORTE BAIANO", "Municipio": "Santa Teresinha", "Distrito": "Santa Teresinha" }, "geometry": { "type": "Point", "coordinates": [ -39.49310731199995, -12.844139637999945 ] } },
{ "type": "Feature", "properties": { "OBJECTID": 89, "Ponto": "TCL82", "Elev": 652.0, "Regiao_Int": "Vitória da Conquista", "Mesoregiao": "CENTRO SUL BAIANO", "Municipio": "Irajuba", "Distrito": "Irajuba" }, "geometry": { "type": "Point", "coordinates": [ -40.01370815699994, -13.234347419999949 ] } },
{ "type": "Feature", "properties": { "OBJECTID": 90, "Ponto": "TCL83", "Elev": 206.0, "Regiao_Int": "Santo Antônio de Jesus", "Mesoregiao": "SUL BAIANO", "Municipio": "Valença", "Distrito": "Serra Grande" }, "geometry": { "type": "Point", "coordinates": [ -39.337319330999946, -13.267395730999965 ] } },
{ "type": "Feature", "properties": { "OBJECTID": 91, "Ponto": "TCL84", "Elev": 3.0, "Regiao_Int": "Santo Antônio de Jesus", "Mesoregiao": "METROPOLITANA DE SALVADOR", "Municipio": "Jaguaripe", "Distrito": "Cunhangi" }, "geometry": { "type": "Point", "coordinates": [ -39.037928348999969, -13.24083213199998 ] } },
{ "type": "Feature", "properties": { "OBJECTID": 92, "Ponto": "TCL85", "Elev": 11.0, "Regiao_Int": "Santo Antônio de Jesus", "Mesoregiao": "SUL BAIANO", "Municipio": "Valença", "Distrito": "Valença" }, "geometry": { "type": "Point", "coordinates": [ -39.021754399999963, -13.321836904999941 ] } },
{ "type": "Feature", "properties": { "OBJECTID": 93, "Ponto": "TCL86", "Elev": 9.0, "Regiao_Int": "Santo Antônio de Jesus", "Mesoregiao": "SUL BAIANO", "Municipio": "Nilo Peçanha", "Distrito": "Nilo Peçanha" }, "geometry": { "type": "Point", "coordinates": [ -38.996494881999979, -13.703949588999933 ] } }
]
}
